[{"OBJECT_NAME":"LEO 1 (LEO VANTAGE 1)","OBJECT_ID":"2018-004C","EPOCH":"2026-03-09T16:57:06.140448","MEAN_MOTION":14.67184901,"ECCENTRICITY":0.03529424,"INCLINATION":99.2469,"RA_OF_ASC_NODE":334.0284,"ARG_OF_PERICENTER":24.854,"MEAN_ANOMALY":336.9207,"EPHEMERIS_TYPE":0,"CLASSIFICATION_TYPE":"U","NORAD_CAT_ID":43113,"ELEMENT_SET_NO":999,"REV_AT_EPOCH":42289,"BSTAR":0.000396029,"MEAN_MOTION_DOT":5.709e-5,"MEAN_MOTION_DDOT":0},{"OBJECT_NAME":"STARLINK-33849","OBJECT_ID":"2025-083W","EPOCH":"2026-03-09T05:23:01.654080","MEAN_MOTION":15.27583965,"ECCENTRICITY":0.00016737,"INCLINATION":43.0062,"RA_OF_ASC_NODE":8.0085,"ARG_OF_PERICENTER":267.735,"MEAN_ANOMALY":92.331,"EPHEMERIS_TYPE":0,"CLASSIFICATION_TYPE":"U","NORAD_CAT_ID":63654,"ELEMENT_SET_NO":999,"REV_AT_EPOCH":4999,"BSTAR":0.00074683478,"MEAN_MOTION_DOT":0.00020348,"MEAN_MOTION_DDOT":0}]
