LEO 1 (LEO VANTAGE 1)   
1 43113U 18004C   26068.70632107  .00005709  00000+0  39603-3 0  9997
2 43113  99.2469 334.0284 0352942  24.8540 336.9207 14.67184901422891
STARLINK-33849          
1 63654U 25083W   26068.22432470  .00020348  00000+0  74683-3 0  9995
2 63654  43.0062   8.0085 0001673 267.7350  92.3310 15.27583965 49999
